{"type": "FeatureCollection", "features": [{"type": "Feature", "properties": {"name": "Oostmalsebaan", "highway": "secondary", "profile": "car.classifications_aggressive", "guid": "4.785402,51.263718;4.784987,51.263973", "distance": "1024.0736", "time": "89.48562", "count": 8, "surface": "asphalt", "maxspeed": "50", "oneway": "no", "ref": "N153"}, "geometry": {"type": "LineString", "coordinates": [[4.785402, 51.263718], [4.784987, 51.263973]]}}, {"type": "Feature", "properties": {"name": "Oostmalsebaan", "highway": "secondary", "profile": "car.classifications_aggressive", "guid": "4.784987,51.263973;4.784641,51.264194", "distance": "1185.3737", "time": "101.09922", "count": 8, "surface": "asphalt", "maxspeed": "50", "oneway": "no", "ref": "N153"}, "geometry": {"type": "LineString", "coordinates": [[4.784987, 51.263973], [4.784641, 51.264194], [4.7843704, 51.264404], [4.783875, 51.264847], [4.783577, 51.26512]]}}, {"type": "Feature", "properties": {"name": "Stepke", "highway": "residential", "profile": "car.classifications_aggressive", "guid": "4.783577,51.26512;4.783516,51.26509", "distance": "1190.7737", "time": "101.48802", "count": 8, "maxspeed": "50"}, "geometry": {"type": "LineString", "coordinates": [[4.783577, 51.26512], [4.783516, 51.26509]]}}, {"type": "Feature", "properties": {"name": "Stepke", "highway": "residential", "profile": "car.classifications_aggressive", "guid": "4.783516,51.26509;4.783071,51.264923", "distance": "1245.6737", "time": "105.44082", "count": 8, "maxspeed": "50"}, "geometry": {"type": "LineString", "coordinates": [[4.783516, 51.26509], [4.783071, 51.264923], [4.7829037, 51.26489], [4.782812, 51.264877]]}}, {"type": "Feature", "properties": {"name": "Stepke", "highway": "residential", "profile": "car.classifications_aggressive", "guid": "4.782812,51.264877;4.7826133,51.264862", "distance": "1329.7737", "time": "111.49602", "count": 8, "maxspeed": "50"}, "geometry": {"type": "LineString", "coordinates": [[4.782812, 51.264877], [4.7826133, 51.264862], [4.7822394, 51.26484], [4.7819567, 51.264797], [4.7816253, 51.264744]]}}, {"type": "Feature", "properties": {"name": "Stepke", "highway": "residential", "profile": "car.classifications_aggressive", "guid": "4.7816253,51.264744;4.7814703,51.26472", "distance": "1489.2737", "time": "122.98002", "count": 8, "maxspeed": "50"}, "geometry": {"type": "LineString", "coordinates": [[4.7816253, 51.264744], [4.7814703, 51.26472], [4.781118, 51.264717], [4.7794967, 51.264973], [4.779388, 51.264977]]}}, {"type": "Feature", "properties": {"name": "Stepke", "highway": "residential", "profile": "car.classifications_aggressive", "guid": "4.779388,51.264977;4.7794967,51.264973", "distance": "192.79474", "time": "13.881221", "count": 8, "maxspeed": "50"}, "geometry": {"type": "LineString", "coordinates": [[4.779388, 51.264977], [4.7794967, 51.264973], [4.781118, 51.264717], [4.7814703, 51.26472], [4.7816253, 51.264744]]}}, {"type": "Feature", "properties": {"name": "Stepke", "highway": "residential", "profile": "car.classifications_aggressive", "guid": "4.7816253,51.264744;4.7819567,51.264797", "distance": "276.89474", "time": "19.93642", "count": 8, "maxspeed": "50"}, "geometry": {"type": "LineString", "coordinates": [[4.7816253, 51.264744], [4.7819567, 51.264797], [4.7822394, 51.26484], [4.7826133, 51.264862], [4.782812, 51.264877]]}}, {"type": "Feature", "properties": {"name": "Stepke", "highway": "residential", "profile": "car.classifications_aggressive", "guid": "4.782812,51.264877;4.7829037,51.26489", "distance": "331.79474", "time": "23.889221", "count": 8, "maxspeed": "50"}, "geometry": {"type": "LineString", "coordinates": [[4.782812, 51.264877], [4.7829037, 51.26489], [4.783071, 51.264923], [4.783516, 51.26509]]}}, {"type": "Feature", "properties": {"name": "Stepke", "highway": "residential", "profile": "car.classifications_aggressive", "guid": "4.783516,51.26509;4.783577,51.26512", "distance": "337.19473", "time": "24.27802", "count": 8, "maxspeed": "50"}, "geometry": {"type": "LineString", "coordinates": [[4.783516, 51.26509], [4.783577, 51.26512]]}}, {"type": "Feature", "properties": {"name": "Oostmalsebaan", "highway": "secondary", "profile": "car.classifications_aggressive", "guid": "4.783577,51.26512;4.783875,51.264847", "distance": "498.49475", "time": "35.89162", "count": 8, "surface": "asphalt", "maxspeed": "50", "oneway": "no", "ref": "N153"}, "geometry": {"type": "LineString", "coordinates": [[4.783577, 51.26512], [4.783875, 51.264847], [4.7843704, 51.264404], [4.784641, 51.264194], [4.784987, 51.263973]]}}, {"type": "Feature", "properties": {"name": "Oostmalsebaan", "highway": "secondary", "profile": "car.classifications_aggressive", "guid": "4.784987,51.263973;4.785402,51.263718", "distance": "538.99475", "time": "38.80762", "count": 8, "surface": "asphalt", "maxspeed": "50", "oneway": "no", "ref": "N153"}, "geometry": {"type": "LineString", "coordinates": [[4.784987, 51.263973], [4.785402, 51.263718]]}}, {"type": "Feature", "properties": {"name": "Den Hert", "highway": "secondary", "profile": "car", "guid": "4.7858467,51.26351;4.7862334,51.263348", "distance": "60.96046", "time": "4.389153", "count": -1, "maxspeed": "50", "surface": "asphalt", "ref": "N153"}, "geometry": {"type": "LineString", "coordinates": [[4.7858467, 51.26351], [4.7862334, 51.263348], [4.786572, 51.263203]]}}, {"type": "Feature", "properties": {"name": "Gebroeders De Winterstraat", "highway": "secondary", "profile": "car", "guid": "4.786572,51.263203;4.786845,51.26309", "distance": "83.76046", "time": "6.030753", "count": -1, "maxspeed": "50", "ref": "N153"}, "geometry": {"type": "LineString", "coordinates": [[4.786572, 51.263203], [4.786845, 51.26309]]}}, {"type": "Feature", "properties": {"name": "Heymansstraat", "highway": "residential", "profile": "car", "guid": "4.786845,51.26309;4.786864,51.2633", "distance": "107.460464", "time": "7.737153", "count": -1, "maxspeed": "50", "oneway": "yes", "bicycle": "no"}, "geometry": {"type": "LineString", "coordinates": [[4.786845, 51.26309], [4.786864, 51.2633]]}}, {"type": "Feature", "properties": {"name": "Heymansstraat", "highway": "residential", "profile": "car", "guid": "4.786864,51.2633;4.78704,51.263466", "distance": "163.56046", "time": "11.776353", "count": -1, "maxspeed": "50"}, "geometry": {"type": "LineString", "coordinates": [[4.786864, 51.2633], [4.78704, 51.263466], [4.7871933, 51.263626], [4.7872567, 51.263718], [4.787268, 51.263737]]}}, {"type": "Feature", "properties": {"name": "Heymansstraat", "highway": "residential", "profile": "car", "guid": "4.787268,51.263737;4.787329,51.26383", "distance": "187.76045", "time": "13.518753", "count": -1, "maxspeed": "50"}, "geometry": {"type": "LineString", "coordinates": [[4.787268, 51.263737], [4.787329, 51.26383], [4.787381, 51.263943]]}}, {"type": "Feature", "properties": {"name": "Heymansstraat", "highway": "residential", "profile": "car", "guid": "4.787381,51.263943;4.787445,51.264214", "distance": "218.16045", "time": "15.707553", "count": -1, "maxspeed": "50"}, "geometry": {"type": "LineString", "coordinates": [[4.787381, 51.263943], [4.787445, 51.264214]]}}, {"type": "Feature", "properties": {"name": "Heymansstraat", "highway": "residential", "profile": "car", "guid": "4.787445,51.264214;4.787469,51.264305", "distance": "228.46045", "time": "16.449152", "count": -1, "maxspeed": "50"}, "geometry": {"type": "LineString", "coordinates": [[4.787445, 51.264214], [4.787469, 51.264305]]}}, {"type": "Feature", "properties": {"name": "Pastorijstraat", "highway": "residential", "profile": "car", "guid": "4.787469,51.264305;4.7877197,51.26445", "distance": "252.16045", "time": "19.293152", "count": -1}, "geometry": {"type": "LineString", "coordinates": [[4.787469, 51.264305], [4.7877197, 51.26445]]}}, {"type": "Feature", "properties": {"name": "Pastorijstraat", "highway": "residential", "profile": "car", "guid": "4.7877197,51.26445;4.7881985,51.26474", "distance": "298.46045", "time": "24.849152", "count": -1}, "geometry": {"type": "LineString", "coordinates": [[4.7877197, 51.26445], [4.7881985, 51.26474]]}}, {"type": "Feature", "properties": {"name": "Heymansstraat", "highway": "residential", "profile": "car.classifications_aggressive", "guid": "4.7872853,51.265667;4.7873306,51.26564", "distance": "732.57355", "time": "68.49762", "count": 4, "maxspeed": "50", "oneway": "yes"}, "geometry": {"type": "LineString", "coordinates": [[4.7872853, 51.265667], [4.7873306, 51.26564]]}}, {"type": "Feature", "properties": {"name": "Vendelmansweg", "highway": "residential", "profile": "car.classifications_aggressive", "guid": "4.7920127,51.2652;4.7921596,51.26522", "distance": "1157.291", "time": "102.13008", "count": 0, "surface": "concrete", "maxspeed": "50"}, "geometry": {"type": "LineString", "coordinates": [[4.7920127, 51.2652], [4.7921596, 51.26522]]}}, {"type": "Feature", "properties": {"name": "Beulk", "highway": "residential", "profile": "car.classifications_aggressive", "guid": "4.7827673,51.264004;4.7829313,51.263996", "distance": "356.38562", "time": "25.659765", "count": -8, "surface": "concrete", "maxspeed": "50"}, "geometry": {"type": "LineString", "coordinates": [[4.7827673, 51.264004], [4.7829313, 51.263996], [4.782964, 51.263992]]}}, {"type": "Feature", "properties": {"name": "Beulk", "highway": "residential", "profile": "car.classifications_aggressive", "guid": "4.784271,51.26362;4.7838335,51.26374", "distance": "1173.5826", "time": "102.37187", "count": -8, "surface": "concrete", "maxspeed": "50"}, "geometry": {"type": "LineString", "coordinates": [[4.784271, 51.26362], [4.7838335, 51.26374], [4.7831526, 51.263966], [4.782964, 51.263992]]}}, {"type": "Feature", "properties": {"name": "Heymansstraat", "highway": "residential", "profile": "car.classifications_aggressive", "guid": "4.787469,51.264305;4.787445,51.264214", "distance": "366.61752", "time": "30.15006", "count": 0, "maxspeed": "50"}, "geometry": {"type": "LineString", "coordinates": [[4.787469, 51.264305], [4.787445, 51.264214]]}}, {"type": "Feature", "properties": {"name": "Vendelmansweg", "highway": "residential", "profile": "car.classifications_aggressive", "guid": "4.7900496,51.264965;4.789043,51.26478", "distance": "251.01752", "time": "18.073261", "count": 0, "surface": "concrete", "maxspeed": "50"}, "geometry": {"type": "LineString", "coordinates": [[4.7900496, 51.264965], [4.789043, 51.26478], [4.7886443, 51.264717]]}}, {"type": "Feature", "properties": {"name": "Heymansstraat", "highway": "residential", "profile": "car.classifications_aggressive", "guid": "4.787268,51.263737;4.7872567,51.263718", "distance": "477.31754", "time": "38.12046", "count": 0, "maxspeed": "50"}, "geometry": {"type": "LineString", "coordinates": [[4.787268, 51.263737], [4.7872567, 51.263718], [4.7871933, 51.263626], [4.78704, 51.263466], [4.786864, 51.2633]]}}, {"type": "Feature", "properties": {"name": "Heymansstraat", "highway": "residential", "profile": "car.classifications_aggressive", "guid": "4.7874436,51.26557;4.7874527,51.265644", "distance": "73.22802", "time": "5.272417", "count": 4, "maxspeed": "50", "oneway": "yes"}, "geometry": {"type": "LineString", "coordinates": [[4.7874436, 51.26557], [4.7874527, 51.265644], [4.787433, 51.265694], [4.787401, 51.265728]]}}, {"type": "Feature", "properties": {"name": "Beulk", "highway": "residential", "profile": "car.classifications_aggressive", "guid": "4.782964,51.263992;4.7829313,51.263996", "distance": "13.790892", "time": "0.9929442", "count": 0, "surface": "concrete", "maxspeed": "50"}, "geometry": {"type": "LineString", "coordinates": [[4.782964, 51.263992], [4.7829313, 51.263996], [4.7827673, 51.264004]]}}, {"type": "Feature", "properties": {"name": "Kerkepad", "highway": "residential", "profile": "car.classifications_aggressive", "guid": "4.7864647,51.264645;4.786424,51.26466", "distance": "335.8091", "time": "26.291454", "count": -10, "maxspeed": "30", "cyclestreet": "yes"}, "geometry": {"type": "LineString", "coordinates": [[4.7864647, 51.264645], [4.786424, 51.26466]]}}, {"type": "Feature", "properties": {"name": "Heymansstraat", "highway": "residential", "profile": "car.classifications_aggressive", "guid": "4.787448,51.265076;4.787439,51.265514", "distance": "55.12802", "time": "3.9692173", "count": 2, "maxspeed": "50"}, "geometry": {"type": "LineString", "coordinates": [[4.787448, 51.265076], [4.787439, 51.265514], [4.7874436, 51.26557]]}}, {"type": "Feature", "properties": {"name": "Vlimmersebaan", "highway": "tertiary", "profile": "car.classifications_aggressive", "guid": "4.786911,51.265163;4.7872853,51.265667", "distance": "459.8091", "time": "35.065853", "count": 0, "surface": "asphalt", "maxspeed": "50", "cycleway": "lane", "oneway": "no"}, "geometry": {"type": "LineString", "coordinates": [[4.786911, 51.265163], [4.7872853, 51.265667]]}}, {"type": "Feature", "properties": {"name": "Heymansstraat", "highway": "residential", "profile": "car.classifications_aggressive", "guid": "4.787381,51.263943;4.787329,51.26383", "distance": "421.21753", "time": "34.08126", "count": 0, "maxspeed": "50"}, "geometry": {"type": "LineString", "coordinates": [[4.787381, 51.263943], [4.787329, 51.26383], [4.787268, 51.263737]]}}, {"type": "Feature", "properties": {"name": "Vlimmersebaan", "highway": "tertiary", "profile": "car.classifications_aggressive", "guid": "4.786277,51.264427;4.7858768,51.264", "distance": "937.8736", "time": "83.27922", "count": 0, "surface": "asphalt", "maxspeed": "50", "cycleway": "lane", "oneway": "no"}, "geometry": {"type": "LineString", "coordinates": [[4.786277, 51.264427], [4.7858768, 51.264]]}}, {"type": "Feature", "properties": {"name": "Vendelmansweg", "highway": "residential", "profile": "car.classifications_aggressive", "guid": "4.7921596,51.26522;4.7920127,51.2652", "distance": "10.41751", "time": "0.7500607", "count": 0, "surface": "concrete", "maxspeed": "50"}, "geometry": {"type": "LineString", "coordinates": [[4.7921596, 51.26522], [4.7920127, 51.2652]]}}, {"type": "Feature", "properties": {"name": "Beulk", "highway": "residential", "profile": "car.classifications_aggressive", "guid": "4.7806706,51.263863;4.7808266,51.263813", "distance": "255.19473", "time": "18.374022", "count": -8, "surface": "concrete", "maxspeed": "50"}, "geometry": {"type": "LineString", "coordinates": [[4.7806706, 51.263863], [4.7808266, 51.263813], [4.781275, 51.263733], [4.7814813, 51.263714], [4.7816234, 51.26371]]}}, {"type": "Feature", "properties": {"name": "Akkerpad", "highway": "residential", "profile": "car.classifications_aggressive", "guid": "4.785587,51.26898;4.786492,51.2691", "distance": "320.97357", "time": "38.516827", "count": 10}, "geometry": {"type": "LineString", "coordinates": [[4.785587, 51.26898], [4.786492, 51.2691]]}}, {"type": "Feature", "properties": {"name": "Vlimmersebaan", "highway": "tertiary", "profile": "car.classifications_aggressive", "guid": "4.786911,51.265163;4.786669,51.26486", "distance": "855.4736", "time": "77.34642", "count": -4, "surface": "asphalt", "maxspeed": "50", "cycleway": "lane", "oneway": "no"}, "geometry": {"type": "LineString", "coordinates": [[4.786911, 51.265163], [4.786669, 51.26486], [4.786521, 51.2647], [4.7864647, 51.264645]]}}, {"type": "Feature", "properties": {"name": "Beulk", "highway": "residential", "profile": "car.classifications_aggressive", "guid": "4.784271,51.26362;4.7846007,51.26353", "distance": "145.80911", "time": "10.498255", "count": -8, "surface": "concrete", "maxspeed": "50"}, "geometry": {"type": "LineString", "coordinates": [[4.784271, 51.26362], [4.7846007, 51.26353], [4.784819, 51.26349], [4.7848864, 51.26349]]}}, {"type": "Feature", "properties": {"name": "De Dalen", "highway": "residential", "profile": "car.classifications_aggressive", "guid": "4.7866917,51.268932;4.786748,51.26893", "distance": "353.47354", "time": "41.202427", "count": 0, "maxspeed": "50"}, "geometry": {"type": "LineString", "coordinates": [[4.7866917, 51.268932], [4.786748, 51.26893]]}}, {"type": "Feature", "properties": {"name": "Heymansstraat", "highway": "residential", "profile": "car.classifications_aggressive", "guid": "4.787448,51.265076;4.787448,51.265064", "distance": "1.2719799", "time": "0.09158255", "count": -2, "maxspeed": "50"}, "geometry": {"type": "LineString", "coordinates": [[4.787448, 51.265076], [4.787448, 51.265064]]}}, {"type": "Feature", "properties": {"name": "Vlimmersebaan", "highway": "tertiary", "profile": "car.classifications_aggressive", "guid": "4.787506,51.265965;4.787363,51.26577", "distance": "23.729834", "time": "1.708548", "count": -2, "surface": "asphalt", "maxspeed": "50", "cycleway": "lane"}, "geometry": {"type": "LineString", "coordinates": [[4.787506, 51.265965], [4.787363, 51.26577]]}}, {"type": "Feature", "properties": {"name": "Heymansstraat", "highway": "residential", "profile": "car.classifications_aggressive", "guid": "4.7869635,51.26515;4.7870584,51.26512", "distance": "437.3091", "time": "33.445854", "count": -3, "maxspeed": "50"}, "geometry": {"type": "LineString", "coordinates": [[4.7869635, 51.26515], [4.7870584, 51.26512], [4.787282, 51.265076], [4.787448, 51.265064]]}}, {"type": "Feature", "properties": {"name": "Den Hert", "highway": "secondary", "profile": "car.classifications_aggressive", "guid": "4.7858467,51.26351;4.785548,51.263638", "distance": "25.039536", "time": "1.8028466", "count": 1, "surface": "asphalt", "maxspeed": "50", "ref": "N153"}, "geometry": {"type": "LineString", "coordinates": [[4.7858467, 51.26351], [4.785548, 51.263638]]}}, {"type": "Feature", "properties": {"name": "Den Hert", "highway": "secondary", "profile": "car.classifications_aggressive", "guid": "4.785548,51.263638;4.785402,51.263718", "distance": "38.539536", "time": "2.6128464", "count": 0, "surface": "asphalt", "ref": "N153"}, "geometry": {"type": "LineString", "coordinates": [[4.785548, 51.263638], [4.785402, 51.263718]]}}, {"type": "Feature", "properties": {"name": "Vendelmansweg", "highway": "residential", "profile": "car.classifications_aggressive", "guid": "4.7920127,51.2652;4.7900496,51.264965", "distance": "149.41751", "time": "10.75806", "count": 0, "surface": "concrete", "maxspeed": "50"}, "geometry": {"type": "LineString", "coordinates": [[4.7920127, 51.2652], [4.7900496, 51.264965]]}}, {"type": "Feature", "properties": {"name": "Heymansstraat", "highway": "residential", "profile": "car.classifications_aggressive", "guid": "4.787445,51.264214;4.787381,51.263943", "distance": "397.01752", "time": "32.33886", "count": 0, "maxspeed": "50"}, "geometry": {"type": "LineString", "coordinates": [[4.787445, 51.264214], [4.787381, 51.263943]]}}, {"type": "Feature", "properties": {"name": "Beulk", "highway": "residential", "profile": "car.classifications_aggressive", "guid": "4.785402,51.263718;4.7850976,51.263557", "distance": "1027.7736", "time": "91.87362", "count": -8, "surface": "paving_stones"}, "geometry": {"type": "LineString", "coordinates": [[4.785402, 51.263718], [4.7850976, 51.263557], [4.7848864, 51.26349]]}}, {"type": "Feature", "properties": {"name": "Akkerpad", "highway": "residential", "profile": "car.classifications_aggressive", "guid": "4.7865944,51.269115;4.7865458,51.269108", "distance": "469.428", "time": "33.962013", "count": 10}, "geometry": {"type": "LineString", "coordinates": [[4.7865944, 51.269115], [4.7865458, 51.269108]]}}, {"type": "Feature", "properties": {"name": "Heymansstraat", "highway": "residential", "profile": "car.classifications_aggressive", "guid": "4.7874575,51.264923;4.787448,51.265064", "distance": "357.41754", "time": "28.78686", "count": 0, "maxspeed": "50"}, "geometry": {"type": "LineString", "coordinates": [[4.7874575, 51.264923], [4.787448, 51.265064]]}}, {"type": "Feature", "properties": {"highway": "track", "profile": "car.classifications_aggressive", "guid": "4.7859273,51.264847;4.7861238,51.26505", "distance": "507.30908", "time": "54.743454", "count": -10}, "geometry": {"type": "LineString", "coordinates": [[4.7859273, 51.264847], [4.7861238, 51.26505], [4.786442, 51.265587], [4.786641, 51.265835], [4.7867336, 51.265907]]}}, {"type": "Feature", "properties": {"name": "Vlimmersebaan", "highway": "tertiary", "profile": "car.classifications_aggressive", "guid": "4.787363,51.26577;4.787506,51.265965", "distance": "102.25786", "time": "7.362565", "count": -2, "surface": "asphalt", "maxspeed": "50", "cycleway": "lane"}, "geometry": {"type": "LineString", "coordinates": [[4.787363, 51.26577], [4.787506, 51.265965]]}}, {"type": "Feature", "properties": {"name": "Beulk", "highway": "residential", "profile": "car.classifications_aggressive", "guid": "4.7816234,51.26371;4.781911,51.263733", "distance": "342.59473", "time": "24.66682", "count": -8, "surface": "concrete", "maxspeed": "50"}, "geometry": {"type": "LineString", "coordinates": [[4.7816234, 51.26371], [4.781911, 51.263733], [4.782169, 51.26379], [4.782619, 51.263973], [4.7827673, 51.264004]]}}, {"type": "Feature", "properties": {"name": "Vlimmersebaan", "highway": "tertiary", "profile": "car.classifications_aggressive", "guid": "4.7877192,51.26632;4.787718,51.266354", "distance": "148.45499", "time": "10.688758", "count": -1, "surface": "asphalt", "maxspeed": "50", "cycleway": "lane"}, "geometry": {"type": "LineString", "coordinates": [[4.7877192, 51.26632], [4.787718, 51.266354]]}}, {"type": "Feature", "properties": {"name": "Pastorijstraat", "highway": "residential", "profile": "car.classifications_aggressive", "guid": "4.7881985,51.26474;4.788291,51.264786", "distance": "879.17365", "time": "82.10562", "count": 0}, "geometry": {"type": "LineString", "coordinates": [[4.7881985, 51.26474], [4.788291, 51.264786]]}}, {"type": "Feature", "properties": {"name": "Akkerpad", "highway": "residential", "profile": "car.classifications_aggressive", "guid": "4.7865458,51.269108;4.786492,51.2691", "distance": "473.228", "time": "34.418015", "count": 10}, "geometry": {"type": "LineString", "coordinates": [[4.7865458, 51.269108], [4.786492, 51.2691]]}}, {"type": "Feature", "properties": {"name": "Vlimmersebaan", "highway": "tertiary", "profile": "car.classifications_aggressive", "guid": "4.7872853,51.265667;4.787302,51.26569", "distance": "471.00912", "time": "35.872253", "count": 0, "maxspeed": "50", "cycleway": "lane"}, "geometry": {"type": "LineString", "coordinates": [[4.7872853, 51.265667], [4.787302, 51.26569], [4.787354, 51.26576]]}}, {"type": "Feature", "properties": {"name": "Blommerschotsebaan", "highway": "residential", "profile": "car.classifications_aggressive", "guid": "4.779388,51.264977;4.780648,51.26391", "distance": "186.19473", "time": "13.406021", "count": -8, "surface": "concrete", "maxspeed": "50"}, "geometry": {"type": "LineString", "coordinates": [[4.779388, 51.264977], [4.780648, 51.26391], [4.7806706, 51.263863]]}}, {"type": "Feature", "properties": {"name": "Heymansstraat", "highway": "residential", "profile": "car.classifications_aggressive", "guid": "4.7869635,51.26515;4.786911,51.265163", "distance": "40.47198", "time": "2.9139824", "count": -4, "maxspeed": "50"}, "geometry": {"type": "LineString", "coordinates": [[4.7869635, 51.26515], [4.786911, 51.265163]]}}, {"type": "Feature", "properties": {"name": "Blommerschotsebaan", "highway": "residential", "profile": "car.classifications_aggressive", "guid": "4.7806706,51.263863;4.780648,51.26391", "distance": "323.09088", "time": "23.262543", "count": -8, "surface": "concrete", "maxspeed": "50"}, "geometry": {"type": "LineString", "coordinates": [[4.7806706, 51.263863], [4.780648, 51.26391], [4.779388, 51.264977]]}}, {"type": "Feature", "properties": {"name": "Vlimmersebaan", "highway": "tertiary", "profile": "car.classifications_aggressive", "guid": "4.786277,51.264427;4.786419,51.26459", "distance": "332.6091", "time": "25.907454", "count": 1, "surface": "asphalt", "maxspeed": "50", "cycleway": "lane", "oneway": "no"}, "geometry": {"type": "LineString", "coordinates": [[4.786277, 51.264427], [4.786419, 51.26459], [4.7864647, 51.264645]]}}, {"type": "Feature", "properties": {"name": "Heymansstraat", "highway": "residential", "profile": "car.classifications_aggressive", "guid": "4.786864,51.2633;4.786829,51.26329", "distance": "500.41754", "time": "39.78366", "count": 0, "maxspeed": "50", "oneway": "yes"}, "geometry": {"type": "LineString", "coordinates": [[4.786864, 51.2633], [4.786829, 51.26329], [4.786572, 51.263203]]}}, {"type": "Feature", "properties": {"name": "Vlimmersebaan", "highway": "tertiary", "profile": "car.classifications_aggressive", "guid": "4.7866917,51.268932;4.787143,51.267914", "distance": "649.57355", "time": "62.521626", "count": 10, "surface": "asphalt", "maxspeed": "50", "cycleway": "lane"}, "geometry": {"type": "LineString", "coordinates": [[4.7866917, 51.268932], [4.787143, 51.267914], [4.787543, 51.267056], [4.7877083, 51.266556], [4.7877192, 51.26632]]}}, {"type": "Feature", "properties": {"name": "De Dalen", "highway": "residential", "profile": "car.classifications_aggressive", "guid": "4.7868457,51.268925;4.7867637,51.26893", "distance": "5.7167463", "time": "0.41160572", "count": 0, "maxspeed": "50"}, "geometry": {"type": "LineString", "coordinates": [[4.7868457, 51.268925], [4.7867637, 51.26893]]}}, {"type": "Feature", "properties": {"name": "De Dalen", "highway": "residential", "profile": "car.classifications_aggressive", "guid": "4.786748,51.26893;4.7867637,51.26893", "distance": "354.47354", "time": "41.274426", "count": 0, "maxspeed": "50"}, "geometry": {"type": "LineString", "coordinates": [[4.786748, 51.26893], [4.7867637, 51.26893]]}}, {"type": "Feature", "properties": {"name": "Heymansstraat", "highway": "residential", "profile": "car.classifications_aggressive", "guid": "4.786911,51.265163;4.7869635,51.26515", "distance": "402.1091", "time": "30.911453", "count": -3, "maxspeed": "50"}, "geometry": {"type": "LineString", "coordinates": [[4.786911, 51.265163], [4.7869635, 51.26515]]}}, {"type": "Feature", "properties": {"name": "Vlimmersebaan", "highway": "tertiary", "profile": "car.classifications_aggressive", "guid": "4.7865944,51.269115;4.7866917,51.268932", "distance": "349.57355", "time": "40.921627", "count": 10, "surface": "asphalt", "maxspeed": "50", "cycleway": "lane"}, "geometry": {"type": "LineString", "coordinates": [[4.7865944, 51.269115], [4.7866917, 51.268932]]}}, {"type": "Feature", "properties": {"name": "Vlimmersebaan", "highway": "tertiary", "profile": "car.classifications_aggressive", "guid": "4.7872853,51.265667;4.786911,51.265163", "distance": "789.9736", "time": "72.63042", "count": 0, "surface": "asphalt", "maxspeed": "50", "cycleway": "lane", "oneway": "no"}, "geometry": {"type": "LineString", "coordinates": [[4.7872853, 51.265667], [4.786911, 51.265163]]}}, {"type": "Feature", "properties": {"name": "Heymansstraat", "highway": "residential", "profile": "car.classifications_aggressive", "guid": "4.7874436,51.26557;4.787439,51.265514", "distance": "798.60156", "time": "73.25163", "count": 4, "maxspeed": "50"}, "geometry": {"type": "LineString", "coordinates": [[4.7874436, 51.26557], [4.787439, 51.265514], [4.787448, 51.265076]]}}, {"type": "Feature", "properties": {"name": "Bergpad", "highway": "residential", "profile": "car.classifications_aggressive", "guid": "4.7867336,51.265907;4.7867937,51.265965", "distance": "583.1624", "time": "63.845848", "count": -10}, "geometry": {"type": "LineString", "coordinates": [[4.7867336, 51.265907], [4.7867937, 51.265965], [4.786532, 51.266556]]}}, {"type": "Feature", "properties": {"name": "Den Hert", "highway": "secondary", "profile": "car.classifications_aggressive", "guid": "4.785402,51.263718;4.785548,51.263638", "distance": "997.0736", "time": "87.379616", "count": 0, "surface": "asphalt", "ref": "N153"}, "geometry": {"type": "LineString", "coordinates": [[4.785402, 51.263718], [4.785548, 51.263638]]}}, {"type": "Feature", "properties": {"name": "Kerkepad", "highway": "residential", "profile": "car.classifications_aggressive", "guid": "4.7859273,51.264847;4.786424,51.26466", "distance": "247.35332", "time": "37.554394", "count": -10, "maxspeed": "30", "cyclestreet": "yes"}, "geometry": {"type": "LineString", "coordinates": [[4.7859273, 51.264847], [4.786424, 51.26466]]}}, {"type": "Feature", "properties": {"name": "Pastorijstraat", "highway": "residential", "profile": "car.classifications_aggressive", "guid": "4.788291,51.264786;4.7881985,51.26474", "distance": "286.31754", "time": "21.008461", "count": 0}, "geometry": {"type": "LineString", "coordinates": [[4.788291, 51.264786], [4.7881985, 51.26474]]}}, {"type": "Feature", "properties": {"name": "Vlimmersebaan", "highway": "tertiary", "profile": "car.classifications_aggressive", "guid": "4.785548,51.263638;4.7856126,51.263702", "distance": "250.2091", "time": "19.974655", "count": 1, "surface": "asphalt", "maxspeed": "50", "oneway": "yes", "cycleway:right": "lane"}, "geometry": {"type": "LineString", "coordinates": [[4.785548, 51.263638], [4.7856126, 51.263702], [4.785874, 51.263966], [4.7858768, 51.264]]}}, {"type": "Feature", "properties": {"name": "Vlimmersebaan", "highway": "tertiary", "profile": "car.classifications_aggressive", "guid": "4.787354,51.26576;4.787302,51.26569", "distance": "728.27356", "time": "68.18802", "count": 4, "maxspeed": "50", "cycleway": "lane"}, "geometry": {"type": "LineString", "coordinates": [[4.787354, 51.26576], [4.787302, 51.26569], [4.7872853, 51.265667]]}}, {"type": "Feature", "properties": {"name": "Vlimmersebaan", "highway": "tertiary", "profile": "car.classifications_aggressive", "guid": "4.7858768,51.264;4.7858257,51.263985", "distance": "983.5736", "time": "86.56962", "count": 0, "surface": "asphalt", "maxspeed": "50", "oneway": "yes", "cycleway:right": "lane"}, "geometry": {"type": "LineString", "coordinates": [[4.7858768, 51.264], [4.7858257, 51.263985], [4.7854824, 51.263767], [4.785402, 51.263718]]}}, {"type": "Feature", "properties": {"name": "Pastorijstraat", "highway": "residential", "profile": "car.classifications_aggressive", "guid": "4.7877197,51.26445;4.787469,51.264305", "distance": "356.31754", "time": "29.40846", "count": 0}, "geometry": {"type": "LineString", "coordinates": [[4.7877197, 51.26445], [4.787469, 51.264305]]}}, {"type": "Feature", "properties": {"name": "De Dalen", "highway": "residential", "profile": "car.classifications_aggressive", "guid": "4.786748,51.26893;4.7866917,51.268932", "distance": "10.616747", "time": "0.7644057", "count": 0, "maxspeed": "50"}, "geometry": {"type": "LineString", "coordinates": [[4.786748, 51.26893], [4.7866917, 51.268932]]}}, {"type": "Feature", "properties": {"name": "Heymansstraat", "highway": "residential", "profile": "car.classifications_aggressive", "guid": "4.7873306,51.26564;4.7873673,51.265617", "distance": "743.4736", "time": "69.28242", "count": 4, "maxspeed": "50", "oneway": "yes"}, "geometry": {"type": "LineString", "coordinates": [[4.7873306, 51.26564], [4.7873673, 51.265617], [4.7874436, 51.26557]]}}, {"type": "Feature", "properties": {"name": "Vendelmansweg", "highway": "residential", "profile": "car.classifications_aggressive", "guid": "4.7900496,51.264965;4.7920127,51.2652", "distance": "1146.8735", "time": "101.38002", "count": 0, "surface": "concrete", "maxspeed": "50"}, "geometry": {"type": "LineString", "coordinates": [[4.7900496, 51.264965], [4.7920127, 51.2652]]}}, {"type": "Feature", "properties": {"name": "De Dalen", "highway": "residential", "profile": "car.classifications_aggressive", "guid": "4.7867637,51.26893;4.7868457,51.268925", "distance": "360.19028", "time": "41.68603", "count": 0, "maxspeed": "50"}, "geometry": {"type": "LineString", "coordinates": [[4.7867637, 51.26893], [4.7868457, 51.268925]]}}, {"type": "Feature", "properties": {"name": "Vlimmersebaan", "highway": "tertiary", "profile": "car.classifications_aggressive", "guid": "4.787718,51.266354;4.7877083,51.266556", "distance": "296.17303", "time": "21.324457", "count": 1, "surface": "asphalt", "maxspeed": "50", "cycleway": "lane"}, "geometry": {"type": "LineString", "coordinates": [[4.787718, 51.266354], [4.7877083, 51.266556], [4.787543, 51.267056], [4.787143, 51.267914], [4.7866917, 51.268932]]}}, {"type": "Feature", "properties": {"name": "Vendelmansweg", "highway": "residential", "profile": "car.classifications_aggressive", "guid": "4.7886443,51.264717;4.789043,51.26478", "distance": "1007.8736", "time": "91.372025", "count": 0, "surface": "concrete", "maxspeed": "50"}, "geometry": {"type": "LineString", "coordinates": [[4.7886443, 51.264717], [4.789043, 51.26478], [4.7900496, 51.264965]]}}, {"type": "Feature", "properties": {"name": "Vendelmansweg", "highway": "residential", "profile": "car.classifications_aggressive", "guid": "4.788291,51.264786;4.7884097,51.264725", "distance": "906.2736", "time": "84.05682", "count": 0, "surface": "concrete", "maxspeed": "50"}, "geometry": {"type": "LineString", "coordinates": [[4.788291, 51.264786], [4.7884097, 51.264725], [4.7886047, 51.264713], [4.7886443, 51.264717]]}}, {"type": "Feature", "properties": {"name": "Bergpad", "highway": "residential", "profile": "car.classifications_aggressive", "guid": "4.7863317,51.267044;4.786222,51.26735", "distance": "256.57358", "time": "30.788828", "count": 10}, "geometry": {"type": "LineString", "coordinates": [[4.7863317, 51.267044], [4.786222, 51.26735], [4.7861767, 51.267548], [4.786198, 51.26804], [4.7861686, 51.26815], [4.7856483, 51.268887], [4.785587, 51.26898]]}}, {"type": "Feature", "properties": {"name": "Beulk", "highway": "residential", "profile": "car.classifications_aggressive", "guid": "4.7848864,51.26349;4.784819,51.26349", "distance": "1073.2736", "time": "95.14962", "count": -8, "surface": "concrete", "maxspeed": "50"}, "geometry": {"type": "LineString", "coordinates": [[4.7848864, 51.26349], [4.784819, 51.26349], [4.7846007, 51.26353], [4.784271, 51.26362]]}}, {"type": "Feature", "properties": {"name": "Bergpad", "highway": "residential", "profile": "car.classifications_aggressive", "guid": "4.7863317,51.267044;4.786421,51.266808", "distance": "87.82027", "time": "10.538431", "count": -2}, "geometry": {"type": "LineString", "coordinates": [[4.7863317, 51.267044], [4.786421, 51.266808], [4.786532, 51.266556]]}}, {"type": "Feature", "properties": {"name": "Akkerpad", "highway": "residential", "profile": "car.classifications_aggressive", "guid": "4.786492,51.2691;4.7865458,51.269108", "distance": "324.77356", "time": "38.972828", "count": 10}, "geometry": {"type": "LineString", "coordinates": [[4.786492, 51.2691], [4.7865458, 51.269108]]}}, {"type": "Feature", "properties": {"name": "Beulk", "highway": "residential", "profile": "car.classifications_aggressive", "guid": "4.7848864,51.26349;4.7850976,51.263557", "distance": "190.00911", "time": "15.802255", "count": -8, "surface": "paving_stones"}, "geometry": {"type": "LineString", "coordinates": [[4.7848864, 51.26349], [4.7850976, 51.263557], [4.785402, 51.263718]]}}, {"type": "Feature", "properties": {"name": "Bergpad", "highway": "residential", "profile": "car.classifications_aggressive", "guid": "4.786532,51.266556;4.786421,51.266808", "distance": "56.04668", "time": "6.725601", "count": 4}, "geometry": {"type": "LineString", "coordinates": [[4.786532, 51.266556], [4.786421, 51.266808], [4.7863317, 51.267044]]}}, {"type": "Feature", "properties": {"name": "Beulk", "highway": "residential", "profile": "car.classifications_aggressive", "guid": "4.7827673,51.264004;4.782619,51.263973", "distance": "101.190895", "time": "7.285744", "count": -8, "surface": "concrete", "maxspeed": "50"}, "geometry": {"type": "LineString", "coordinates": [[4.7827673, 51.264004], [4.782619, 51.263973], [4.782169, 51.26379], [4.781911, 51.263733], [4.7816234, 51.26371]]}}, {"type": "Feature", "properties": {"name": "Vlimmersebaan", "highway": "tertiary", "profile": "car.classifications_aggressive", "guid": "4.7864647,51.264645;4.786419,51.26459", "distance": "882.8736", "time": "79.31922", "count": 0, "surface": "asphalt", "maxspeed": "50", "cycleway": "lane", "oneway": "no"}, "geometry": {"type": "LineString", "coordinates": [[4.7864647, 51.264645], [4.786419, 51.26459], [4.786277, 51.264427]]}}, {"type": "Feature", "properties": {"name": "Heymansstraat", "highway": "residential", "profile": "car.classifications_aggressive", "guid": "4.7874575,51.264923;4.787801,51.26484", "distance": "870.97363", "time": "81.12162", "count": 1}, "geometry": {"type": "LineString", "coordinates": [[4.7874575, 51.264923], [4.787801, 51.26484], [4.7881985, 51.26474]]}}, {"type": "Feature", "properties": {"name": "Beulk", "highway": "residential", "profile": "car.classifications_aggressive", "guid": "4.782964,51.263992;4.7831526,51.263966", "distance": "100.309105", "time": "7.222255", "count": 0, "surface": "concrete", "maxspeed": "50"}, "geometry": {"type": "LineString", "coordinates": [[4.782964, 51.263992], [4.7831526, 51.263966], [4.7838335, 51.26374], [4.784271, 51.26362]]}}, {"type": "Feature", "properties": {"name": "Akkerpad", "highway": "residential", "profile": "car.classifications_aggressive", "guid": "4.786492,51.2691;4.785587,51.26898", "distance": "537.628", "time": "42.146015", "count": 10}, "geometry": {"type": "LineString", "coordinates": [[4.786492, 51.2691], [4.785587, 51.26898]]}}, {"type": "Feature", "properties": {"name": "Pastorijstraat", "highway": "residential", "profile": "car.classifications_aggressive", "guid": "4.7881985,51.26474;4.7877197,51.26445", "distance": "332.61752", "time": "26.56446", "count": 0}, "geometry": {"type": "LineString", "coordinates": [[4.7881985, 51.26474], [4.7877197, 51.26445]]}}, {"type": "Feature", "properties": {"highway": "track", "profile": "car.classifications_aggressive", "guid": "4.7867336,51.265907;4.786641,51.265835", "distance": "207.05331", "time": "32.718395", "count": -10}, "geometry": {"type": "LineString", "coordinates": [[4.7867336, 51.265907], [4.786641, 51.265835], [4.786442, 51.265587], [4.7861238, 51.26505], [4.7859273, 51.264847]]}}, {"type": "Feature", "properties": {"name": "Vlimmersebaan", "highway": "tertiary", "profile": "car.classifications_aggressive", "guid": "4.7858768,51.264;4.786277,51.264427", "distance": "305.2091", "time": "23.934654", "count": 1, "surface": "asphalt", "maxspeed": "50", "cycleway": "lane", "oneway": "no"}, "geometry": {"type": "LineString", "coordinates": [[4.7858768, 51.264], [4.786277, 51.264427]]}}, {"type": "Feature", "properties": {"name": "Heymansstraat", "highway": "residential", "profile": "car.classifications_aggressive", "guid": "4.787448,51.265064;4.787282,51.265076", "distance": "36.47198", "time": "2.6259825", "count": -4, "maxspeed": "50"}, "geometry": {"type": "LineString", "coordinates": [[4.787448, 51.265064], [4.787282, 51.265076], [4.7870584, 51.26512], [4.7869635, 51.26515]]}}, {"type": "Feature", "properties": {"name": "De Dalen", "highway": "residential", "profile": "car.classifications_aggressive", "guid": "4.7867637,51.26893;4.786748,51.26893", "distance": "6.7167463", "time": "0.4836057", "count": 0, "maxspeed": "50"}, "geometry": {"type": "LineString", "coordinates": [[4.7867637, 51.26893], [4.786748, 51.26893]]}}, {"type": "Feature", "properties": {"name": "Vlimmersebaan", "highway": "tertiary", "profile": "car.classifications_aggressive", "guid": "4.7864647,51.264645;4.786521,51.2647", "distance": "398.1091", "time": "30.623453", "count": -3, "surface": "asphalt", "maxspeed": "50", "cycleway": "lane", "oneway": "no"}, "geometry": {"type": "LineString", "coordinates": [[4.7864647, 51.264645], [4.786521, 51.2647], [4.786669, 51.26486], [4.786911, 51.265163]]}}, {"type": "Feature", "properties": {"name": "Blommerschotsebaan", "highway": "residential", "profile": "car.classifications_aggressive", "guid": "4.779388,51.264977;4.7790184,51.265167", "distance": "1522.5685", "time": "125.37724", "count": 0, "surface": "concrete", "maxspeed": "50"}, "geometry": {"type": "LineString", "coordinates": [[4.779388, 51.264977], [4.7790184, 51.265167]]}}, {"type": "Feature", "properties": {"name": "Vlimmersebaan", "highway": "tertiary", "profile": "car.classifications_aggressive", "guid": "4.787354,51.26576;4.787363,51.26577", "distance": "472.40912", "time": "35.973053", "count": 0, "surface": "asphalt", "maxspeed": "50", "cycleway": "lane"}, "geometry": {"type": "LineString", "coordinates": [[4.787354, 51.26576], [4.787363, 51.26577]]}}, {"type": "Feature", "properties": {"name": "Beulk", "highway": "residential", "profile": "car.classifications_aggressive", "guid": "4.7816234,51.26371;4.7814813,51.263714", "distance": "170.19089", "time": "12.253744", "count": -8, "surface": "concrete", "maxspeed": "50"}, "geometry": {"type": "LineString", "coordinates": [[4.7816234, 51.26371], [4.7814813, 51.263714], [4.781275, 51.263733], [4.7808266, 51.263813], [4.7806706, 51.263863]]}}, {"type": "Feature", "properties": {"name": "Akkerpad", "highway": "residential", "profile": "car.classifications_aggressive", "guid": "4.7865458,51.269108;4.7865944,51.269115", "distance": "328.17355", "time": "39.38083", "count": 10}, "geometry": {"type": "LineString", "coordinates": [[4.7865458, 51.269108], [4.7865944, 51.269115]]}}, {"type": "Feature", "properties": {"name": "Bergpad", "highway": "residential", "profile": "car.classifications_aggressive", "guid": "4.786532,51.266556;4.7867937,51.265965", "distance": "75.85331", "time": "9.102396", "count": -4}, "geometry": {"type": "LineString", "coordinates": [[4.786532, 51.266556], [4.7867937, 51.265965], [4.7867336, 51.265907]]}}, {"type": "Feature", "properties": {"name": "Den Hert", "highway": "secondary", "profile": "car.classifications_aggressive", "guid": "4.785548,51.263638;4.7858467,51.26351", "distance": "1022.11316", "time": "89.182465", "count": 0, "surface": "asphalt", "maxspeed": "50", "ref": "N153"}, "geometry": {"type": "LineString", "coordinates": [[4.785548, 51.263638], [4.7858467, 51.26351]]}}, {"type": "Feature", "properties": {"name": "Houtvesterstraat", "highway": "residential", "profile": "car.classifications_aggressive", "guid": "4.785901,51.26695;4.7863317,51.267044", "distance": "31.773586", "time": "3.81283", "count": 0}, "geometry": {"type": "LineString", "coordinates": [[4.785901, 51.26695], [4.7863317, 51.267044]]}}, {"type": "Feature", "properties": {"name": "Kerkepad", "highway": "residential", "profile": "car.classifications_aggressive", "guid": "4.786424,51.26466;4.7859273,51.264847", "distance": "376.1091", "time": "31.127453", "count": -10, "maxspeed": "30", "cyclestreet": "yes"}, "geometry": {"type": "LineString", "coordinates": [[4.786424, 51.26466], [4.7859273, 51.264847]]}}, {"type": "Feature", "properties": {"name": "Vendelmansweg", "highway": "residential", "profile": "car.classifications_aggressive", "guid": "4.7886443,51.264717;4.7886047,51.264713", "distance": "278.11752", "time": "20.024462", "count": 0, "surface": "concrete", "maxspeed": "50"}, "geometry": {"type": "LineString", "coordinates": [[4.7886443, 51.264717], [4.7886047, 51.264713], [4.7884097, 51.264725], [4.788291, 51.264786]]}}, {"type": "Feature", "properties": {"name": "Vlimmersebaan", "highway": "tertiary", "profile": "car.classifications_aggressive", "guid": "4.7866917,51.268932;4.7865944,51.269115", "distance": "466.028", "time": "33.554012", "count": 10, "surface": "asphalt", "maxspeed": "50", "cycleway": "lane"}, "geometry": {"type": "LineString", "coordinates": [[4.7866917, 51.268932], [4.7865944, 51.269115]]}}, {"type": "Feature", "properties": {"name": "Heymansstraat", "highway": "residential", "profile": "car.classifications_aggressive", "guid": "4.787448,51.265064;4.7874575,51.264923", "distance": "815.5736", "time": "74.47362", "count": 1, "maxspeed": "50"}, "geometry": {"type": "LineString", "coordinates": [[4.787448, 51.265064], [4.7874575, 51.264923]]}}, {"type": "Feature", "properties": {"name": "Vlimmersebaan", "highway": "tertiary", "profile": "car.classifications_aggressive", "guid": "4.7877192,51.26632;4.7877083,51.266556", "distance": "444.62802", "time": "32.013214", "count": 9, "surface": "asphalt", "maxspeed": "50", "cycleway": "lane"}, "geometry": {"type": "LineString", "coordinates": [[4.7877192, 51.26632], [4.7877083, 51.266556], [4.787543, 51.267056], [4.787143, 51.267914], [4.7866917, 51.268932]]}}, {"type": "Feature", "properties": {"name": "Heymansstraat", "highway": "residential", "profile": "car.classifications_aggressive", "guid": "4.787448,51.265064;4.787448,51.265076", "distance": "438.5811", "time": "33.537437", "count": -2, "maxspeed": "50"}, "geometry": {"type": "LineString", "coordinates": [[4.787448, 51.265064], [4.787448, 51.265076]]}}, {"type": "Feature", "properties": {"name": "Vlimmersebaan", "highway": "tertiary", "profile": "car.classifications_aggressive", "guid": "4.787363,51.26577;4.787354,51.26576", "distance": "717.07355", "time": "67.38162", "count": 4, "surface": "asphalt", "maxspeed": "50", "cycleway": "lane"}, "geometry": {"type": "LineString", "coordinates": [[4.787363, 51.26577], [4.787354, 51.26576]]}}, {"type": "Feature", "properties": {"name": "Houtvesterstraat", "highway": "residential", "profile": "car.classifications_aggressive", "guid": "4.7863317,51.267044;4.785901,51.26695", "distance": "794.20154", "time": "72.93484", "count": 0}, "geometry": {"type": "LineString", "coordinates": [[4.7863317, 51.267044], [4.785901, 51.26695]]}}, {"type": "Feature", "properties": {"name": "Heymansstraat", "highway": "residential", "profile": "car.classifications_aggressive", "guid": "4.7881985,51.26474;4.787801,51.26484", "distance": "341.71753", "time": "27.65646", "count": 0}, "geometry": {"type": "LineString", "coordinates": [[4.7881985, 51.26474], [4.787801, 51.26484], [4.7874575, 51.264923]]}}, {"type": "Feature", "properties": {"name": "Bergpad", "highway": "residential", "profile": "car.classifications_aggressive", "guid": "4.785587,51.26898;4.7856483,51.268887", "distance": "762.428", "time": "69.12201", "count": 10}, "geometry": {"type": "LineString", "coordinates": [[4.785587, 51.26898], [4.7856483, 51.268887], [4.7861686, 51.26815], [4.786198, 51.26804], [4.7861767, 51.267548], [4.786222, 51.26735], [4.7863317, 51.267044]]}}, {"type": "Feature", "properties": {"name": "Kerkepad", "highway": "residential", "profile": "car.classifications_aggressive", "guid": "4.786424,51.26466;4.7864647,51.264645", "distance": "250.55331", "time": "37.938393", "count": -10, "maxspeed": "30", "cyclestreet": "yes"}, "geometry": {"type": "LineString", "coordinates": [[4.786424, 51.26466], [4.7864647, 51.264645]]}}, {"type": "Feature", "properties": {"name": "Blommerschotsebaan", "highway": "residential", "profile": "car.classifications_aggressive", "guid": "4.7790184,51.265167;4.779388,51.264977", "distance": "33.294743", "time": "2.3972213", "count": 0, "surface": "concrete", "maxspeed": "50"}, "geometry": {"type": "LineString", "coordinates": [[4.7790184, 51.265167], [4.779388, 51.264977]]}}, {"type": "Feature", "properties": {"name": "Vlimmersebaan", "highway": "tertiary", "profile": "car.classifications_aggressive", "guid": "4.7877192,51.26632;4.787702,51.266254", "distance": "715.6735", "time": "67.28082", "count": 8, "surface": "asphalt", "maxspeed": "50", "cycleway": "lane"}, "geometry": {"type": "LineString", "coordinates": [[4.7877192, 51.26632], [4.787702, 51.266254], [4.7875853, 51.26607], [4.787363, 51.26577]]}}, {"type": "Feature", "properties": {"name": "Vlimmersebaan", "highway": "tertiary", "profile": "car.classifications_aggressive", "guid": "4.787718,51.266354;4.7877192,51.26632", "distance": "3.8269627", "time": "0.2755413", "count": -1, "surface": "asphalt", "maxspeed": "50", "cycleway": "lane"}, "geometry": {"type": "LineString", "coordinates": [[4.787718, 51.266354], [4.7877192, 51.26632]]}}, {"type": "Feature", "properties": {"name": "Vlimmersebaan", "highway": "tertiary", "profile": "car.classifications_aggressive", "guid": "4.787506,51.265965;4.7875853,51.26607", "distance": "42.370163", "time": "3.0506516", "count": 2, "surface": "asphalt", "maxspeed": "50", "cycleway": "lane"}, "geometry": {"type": "LineString", "coordinates": [[4.787506, 51.265965], [4.7875853, 51.26607], [4.787702, 51.266254], [4.7877192, 51.26632]]}}, {"type": "Feature", "properties": {"name": "Heymansstraat", "highway": "residential", "profile": "car.classifications_aggressive", "guid": "4.787401,51.265728;4.787363,51.26577", "distance": "78.52802", "time": "5.654017", "count": 4, "maxspeed": "50", "oneway": "yes"}, "geometry": {"type": "LineString", "coordinates": [[4.787401, 51.265728], [4.787363, 51.26577]]}}, {"type": "Feature", "properties": {"name": "Vlimmersebaan", "highway": "tertiary", "profile": "car.classifications_aggressive", "guid": "4.787363,51.26577;4.7875853,51.26607", "distance": "144.62802", "time": "10.413217", "count": 6, "surface": "asphalt", "maxspeed": "50", "cycleway": "lane"}, "geometry": {"type": "LineString", "coordinates": [[4.787363, 51.26577], [4.7875853, 51.26607], [4.787702, 51.266254], [4.7877192, 51.26632]]}}, {"type": "Feature", "properties": {"name": "Den Hert", "highway": "secondary", "profile": "car.classifications_aggressive", "guid": "4.786572,51.263203;4.7862334,51.263348", "distance": "561.378", "time": "44.172813", "count": 0, "surface": "asphalt", "maxspeed": "50", "ref": "N153"}, "geometry": {"type": "LineString", "coordinates": [[4.786572, 51.263203], [4.7862334, 51.263348], [4.7858467, 51.26351]]}}, {"type": "Feature", "properties": {"name": "Heymansstraat", "highway": "residential", "profile": "car.classifications_aggressive", "guid": "4.787448,51.265064;4.787439,51.265514", "distance": "413.81754", "time": "32.84766", "count": 2, "maxspeed": "50"}, "geometry": {"type": "LineString", "coordinates": [[4.787448, 51.265064], [4.787439, 51.265514], [4.7874436, 51.26557]]}}]}