{"type": "FeatureCollection", "features": [{"type": "Feature", "name": "ShapeMeta", "geometry": {"type": "LineString", "coordinates": [[4.786532, 51.266556, 20], [4.7867937, 51.265965, 19], [4.7867336, 51.265907, 19]]}, "properties": {"name": "Bergpad", "highway": "residential", "profile": "bicycle.fast", "guid": "00372715-0000-0000-0000-000000000000", "distance": "75.85331", "time": "18.204792", "count": 2}}, {"type": "Feature", "name": "ShapeMeta", "geometry": {"type": "LineString", "coordinates": [[4.7867336, 51.265907, 19], [4.78689, 51.265873, 19], [4.7872624, 51.26578, 19]]}, "properties": {"highway": "cycleway", "surface": "dirt", "profile": "bicycle.fast", "guid": "ffd5cf90-ffff-ffff-0000-000000000000", "distance": "115.153305", "time": "33.92479", "count": 1}}, {"type": "Feature", "name": "ShapeMeta", "geometry": {"type": "LineString", "coordinates": [[4.7872624, 51.26578, 19], [4.78731, 51.26577, 19]]}, "properties": {"highway": "cycleway", "surface": "dirt", "profile": "bicycle.fast", "guid": "ffd5cf91-ffff-ffff-0000-000000000000", "distance": "118.653305", "time": "35.32479", "count": 1}}, {"type": "Feature", "name": "ShapeMeta", "geometry": {"type": "LineString", "coordinates": [[4.78731, 51.26577, 19], [4.787354, 51.26576, 19]]}, "properties": {"highway": "cycleway", "surface": "dirt", "profile": "bicycle.fast", "guid": "ffd5cf92-ffff-ffff-0000-000000000000", "distance": "121.95331", "time": "36.64479", "count": 1}}, {"type": "Feature", "name": "ShapeMeta", "geometry": {"type": "LineString", "coordinates": [[4.787354, 51.26576, 19], [4.787363, 51.26577, 19]]}, "properties": {"name": "Vlimmersebaan", "cycleway": "lane", "highway": "tertiary", "maxspeed": "50", "surface": "asphalt", "profile": "bicycle.fast", "guid": "ffbbb805-ffff-ffff-0000-000000000000", "distance": "123.35331", "time": "36.98079", "count": 1}}, {"type": "Feature", "name": "ShapeMeta", "geometry": {"type": "LineString", "coordinates": [[4.787363, 51.26577, 19], [4.787506, 51.265965, 19]]}, "properties": {"name": "Vlimmersebaan", "cycleway": "lane", "highway": "tertiary", "maxspeed": "50", "surface": "asphalt", "profile": "bicycle.fast", "guid": "004447fa-0000-0000-0000-000000000000", "distance": "147.08315", "time": "42.67595", "count": 2}}, {"type": "Feature", "name": "ShapeMeta", "geometry": {"type": "LineString", "coordinates": [[4.787363, 51.26577, 19], [4.787354, 51.26576, 19]]}, "properties": {"name": "Vlimmersebaan", "cycleway": "lane", "highway": "tertiary", "maxspeed": "50", "surface": "asphalt", "profile": "bicycle.fast", "guid": "004447fb-0000-0000-0000-000000000000", "distance": "25.129833", "time": "6.0311594", "count": 1}}, {"type": "Feature", "name": "ShapeMeta", "geometry": {"type": "LineString", "coordinates": [[4.787354, 51.26576, 19], [4.78731, 51.26577, 19]]}, "properties": {"highway": "cycleway", "surface": "dirt", "profile": "bicycle.fast", "guid": "002a306e-0000-0000-0000-000000000000", "distance": "28.429832", "time": "7.351159", "count": 1}}, {"type": "Feature", "name": "ShapeMeta", "geometry": {"type": "LineString", "coordinates": [[4.78731, 51.26577, 19], [4.7872624, 51.26578, 19]]}, "properties": {"highway": "cycleway", "surface": "dirt", "profile": "bicycle.fast", "guid": "002a306f-0000-0000-0000-000000000000", "distance": "31.929832", "time": "8.751159", "count": 1}}, {"type": "Feature", "name": "ShapeMeta", "geometry": {"type": "LineString", "coordinates": [[4.7872624, 51.26578, 19], [4.78689, 51.265873, 19], [4.7867336, 51.265907, 19]]}, "properties": {"highway": "cycleway", "surface": "dirt", "profile": "bicycle.fast", "guid": "002a3070-0000-0000-0000-000000000000", "distance": "71.22983", "time": "24.471157", "count": 1}}]}